QZS-1R                  
1 49336U 21096A   24109.27654538 -.00000221  00000+0  00000+0 0  9993
2 49336  35.8230  91.4315 0752282 270.3524  79.6518  1.00280343  9084
